[{"OBJECT_NAME":"IRIDIUM 134","OBJECT_ID":"2017-083F","EPOCH":"2026-03-09T21:58:07.186944","MEAN_MOTION":14.34217743,"ECCENTRICITY":0.00020775,"INCLINATION":86.4026,"RA_OF_ASC_NODE":3.549,"ARG_OF_PERICENTER":86.3687,"MEAN_ANOMALY":273.7747,"EPHEMERIS_TYPE":0,"CLASSIFICATION_TYPE":"U","NORAD_CAT_ID":43075,"ELEMENT_SET_NO":999,"REV_AT_EPOCH":42987,"BSTAR":2.4162884e-5,"MEAN_MOTION_DOT":8.7e-7,"MEAN_MOTION_DDOT":0},{"OBJECT_NAME":"SL-8 R\/B","OBJECT_ID":"1987-098B","EPOCH":"2026-03-09T17:56:50.021952","MEAN_MOTION":14.38319458,"ECCENTRICITY":0.00209664,"INCLINATION":74.0073,"RA_OF_ASC_NODE":181.5719,"ARG_OF_PERICENTER":207.8065,"MEAN_ANOMALY":152.197,"EPHEMERIS_TYPE":0,"CLASSIFICATION_TYPE":"U","NORAD_CAT_ID":18586,"ELEMENT_SET_NO":999,"REV_AT_EPOCH":482,"BSTAR":0.00011991031,"MEAN_MOTION_DOT":3.39e-6,"MEAN_MOTION_DDOT":0}]
